STARLINK-1300_new
1 15374C 20019Q   21326.15104648  .00002651  00000-0  17763-3 0  3263
2 15374  53.0539   8.0696 0001617  54.7785 102.1006 15.06395520    17
STARLINK-1300_old
1 25374C 20019Q   21325.10745554  .00003888  00000-0  26058-3 0  3253
2 25374  53.0537  12.7548 0001532  56.3136 198.0520 15.06381467    17
